GORIZONT 1 [-]          
1 11158U 78118A   22357.97512190 -.00000117  00000+0  00000+0 0  9992
2 11158  11.0838 197.8420 3431909 291.6633  35.4830  1.00304652110195
GORIZONT 2 [-]          
1 11440U 79062A   22358.92349494 -.00000023  00000+0  00000+0 0  9992
2 11440   8.8412 299.6456 0003643 306.2824 248.8868  1.00304093125278
GORIZONT 3 [-]          
1 11648U 79105A   22358.86577118 -.00000217  00000+0  00000+0 0  9994
2 11648   9.0038 301.1098 0012647 220.1289 332.4332  1.00341148109741
GORIZONT 4 [-]          
1 11841U 80049A   22358.20616295 -.00000052  00000+0  00000+0 0  9993
2 11841  10.1645 307.0152 0001243 330.1906 175.0891  0.98628615220981
GORIZONT 5 [-]          
1 13092U 82020A   22359.32549545 -.00000078  00000+0  00000+0 0  9999
2 13092  11.1687 312.3373 0033707 216.8291 332.9311  0.98531444109068
GORIZONT 6 [-]          
1 13624U 82103A   22358.59134934  .00000141  00000+0  00000+0 0  9992
2 13624  10.0972 312.4065 0001015 273.3890 282.1684  1.00328892108202
GORIZONT 7 [-]          
1 14160U 83066A   22358.65698464 -.00000202  00000+0  00000+0 0  9996
2 14160  11.7835 321.8650 0010048 320.7230 218.4640  0.98350087142253
GORIZONT 8 [-]          
1 14532U 83118A   22358.62708701 -.00000113  00000+0  00000+0 0  9991
2 14532  11.9640 323.7366 0029685 153.1981 223.6966  0.98270559108026
GORIZONT 9 [-]          
1 14940U 84041A   22359.42494876  .00000013  00000+0  00000+0 0  9992
2 14940  11.1517 321.7366 0004455 219.7676 130.5059  1.00227696109297
GORIZONT 10 [-]         
1 15144U 84078A   22358.66073274  .00000104  00000+0  00000+0 0  9990
2 15144  11.2525 322.7693 0000161 167.4801  30.9958  1.00258487141836
GORIZONT 11 [-]         
1 15484U 85007A   22358.78678948 -.00000338  00000+0  00000+0 0  9992
2 15484  11.4393 324.7617 0002743 158.2968  20.0215  1.00337670139897
GORIZONT 12 [-]         
1 16769U 86044A   22358.55979557  .00000129  00000+0  00000+0 0  9993
2 16769  12.0800 330.1677 0001574 254.6932 113.3823  1.00239099134526
GORIZONT 13 [-]         
1 17083U 86090A   22358.52562684 -.00000071  00000+0  00000+0 0  9997
2 17083  13.9805 337.3933 0013828 340.6649 196.2083  0.96725736106351
GORIZONT 14 [-]         
1 17969U 87040A   22358.69007775 -.00000157  00000+0  00000+0 0  9994
2 17969  12.8899 328.7426 0030858 178.0590 193.4234  0.97660023107453
GORIZONT 15 [-]         
1 19017U 88028A   22358.59213382 -.00000111  00000+0  00000+0 0  9999
2 19017  14.2832 340.1889 0036930 160.1590  11.0540  0.97827817107071
GORIZONT 16 [-]         
1 19397U 88071A   22358.79704828 -.00000227  00000+0  00000+0 0  9998
2 19397  13.1319 338.8643 0013515  63.3559 132.4803  0.99990000125533
GORIZONT 17 [-]         
1 19765U 89004A   22358.69289666 -.00000216  00000+0  00000+0 0  9999
2 19765  13.6922 342.2322 0022518 136.2954 215.4846  0.99068991122982
GORIZONT 18 [-]         
1 20107U 89052A   22358.72636806 -.00000265  00000+0  00000+0 0  9994
2 20107  13.7421 343.4861 0033995 320.7192 209.7964  0.99405705121787
GORIZONT 19 [-]         
1 20263U 89081A   22359.44146662 -.00000230  00000+0  00000+0 0  9997
2 20263  13.4688 342.6540 0003850 215.8246 141.1986  1.00351387121768
GORIZONT 20 [-]         
1 20659U 90054A   22358.49686235 -.00000212  00000+0  00000+0 0  9997
2 20659  13.9182 345.4771 0006664 171.8108 202.3619  1.00232069118957
GORIZONT 21 [-]         
1 20923U 90094A   22358.82823191 -.00000292  00000+0  00000+0 0  9994
2 20923  13.9351 346.2420 0004652 210.2871 145.5904  1.00344752117709
GORIZONT 22 [-]         
1 20953U 90102A   22358.83729855 -.00000330  00000+0  00000+0 0  9993
2 20953  13.8952 346.6128 0002446  23.1754 159.3422  1.00234514117631
GORIZONT 23 [-]         
1 21533U 91046A   22358.93046815 -.00000109  00000+0  00000+0 0  9999
2 21533  14.6761 350.7814 0004096 311.2197 230.3447  0.98907403108161
GORIZONT 24 [-]         
1 21759U 91074A   22358.76331539 -.00000216  00000+0  00000+0 0  9990
2 21759  14.8403 352.7003 0018108 228.2445 131.9036  0.98445252112445
GORIZONT 25 [-]         
1 21922U 92017A   22358.66151722  .00000042  00000+0  00000+0 0  9999
2 21922  14.3803 352.0109 0028401  85.1927  87.2956  0.99855745112254
GORIZONT 26 [-]         
1 22041U 92043A   22358.79617662 -.00000307  00000+0  00000+0 0  9990
2 22041  14.5605 354.0297 0031345 238.5123 297.3822  0.99246969110865
GORIZONT 27 [-]         
1 22245U 92082A   22358.62822017  .00000112  00000+0  00000+0 0  9996
2 22245  14.4764 353.6010 0011747  10.6502 341.4968  1.00177810114382
GORIZONT 28 [-]         
1 22880U 93069A   22358.82962654 -.00000288  00000+0  00000+0 0  9996
2 22880  14.6357 357.4765 0033882 136.1377 215.9789  0.99655582106464
GORIZONT 29 [-]         
1 22907U 93072A   22353.29782531 -.00000284  00000+0  00000+0 0  9996
2 22907  14.5471 356.9681 0009623 345.3012 166.5752  1.00145719106399
GORIZONT 30 [-]         
1 23108U 94030A   22358.86614035 -.00000290  00000+0  00000+0 0  9993
2 23108  14.5616 357.8228 0001644 195.0534 353.4761  1.00246770104726
GORIZONT 31 [-]         
1 23775U 96005A   22359.00674424 -.00000085  00000+0  00000+0 0  9994
2 23775  14.5056   4.0656 0018781 204.2644 329.0215  0.99881244 98357
GORIZONT 32 [-]         
1 23880U 96034A   22356.29169819  .00000021  00000+0  00000+0 0  9997
2 23880  14.4584   4.5953 0008005 357.2158  13.5170  1.00210430 97283
GORIZONT 33 [-]         
1 26372U 00029A   22358.82271628 -.00000162  00000+0  00000+0 0  9995
2 26372  13.2277  15.8374 0002269 104.9997 249.6592  1.00294676 82686
